[{"OBJECT_NAME":"SALSAT","OBJECT_ID":"2020-068K","EPOCH":"2026-03-09T22:26:21.804576","MEAN_MOTION":15.28191989,"ECCENTRICITY":0.00082652,"INCLINATION":97.8859,"RA_OF_ASC_NODE":66.0795,"ARG_OF_PERICENTER":295.8051,"MEAN_ANOMALY":64.2334,"EPHEMERIS_TYPE":0,"CLASSIFICATION_TYPE":"U","NORAD_CAT_ID":46495,"ELEMENT_SET_NO":999,"REV_AT_EPOCH":30019,"BSTAR":0.00040842582,"MEAN_MOTION_DOT":0.00011156,"MEAN_MOTION_DDOT":0},{"OBJECT_NAME":"STARLINK-35946","OBJECT_ID":"2025-265G","EPOCH":"2026-03-09T20:11:59.175168","MEAN_MOTION":15.27586457,"ECCENTRICITY":0.00021343,"INCLINATION":43.002,"RA_OF_ASC_NODE":277.3375,"ARG_OF_PERICENTER":265.8621,"MEAN_ANOMALY":94.1987,"EPHEMERIS_TYPE":0,"CLASSIFICATION_TYPE":"U","NORAD_CAT_ID":66522,"ELEMENT_SET_NO":999,"REV_AT_EPOCH":1713,"BSTAR":0.00084174128,"MEAN_MOTION_DOT":0.00022978,"MEAN_MOTION_DDOT":0}]
